ENVISAT                 
1 27386U 02009A   25334.86690003  .00000145  00000+0  60807-4 0  9990
2 27386  98.3582 285.9096 0001191  81.9352 290.7292 14.38992000244964
IDEFIX & ARIANE 42P R/B 
1 27422U 02021B   25334.76609799  .00000326  00000+0  14074-3 0  9991
2 27422  98.5769 269.6134 0012763 115.9502 244.2998 14.30935802229877
AQUA                    
1 27424U 02022A   25334.98053348  .00001237  00000+0  25794-3 0  9994
2 27424  98.4021 295.6699 0000680 103.9893 296.2222 14.61762881254312
CZ-4B R/B               
1 27432U 02024C   25334.92576355  .00000067  00000+0  57531-4 0  9992
2 27432  98.9018  23.7377 0049273 304.1197 229.5581 14.14523824215277
MIDORI II (ADEOS-II)    
1 27597U 02056A   25334.88389531  .00000325  00000+0  14572-3 0  9996
2 27597  98.7617 287.7791 0000455  11.6462 348.4730 14.29192650196188
H-2A R/B                
1 27601U 02056E   25334.88555021  .00000350  00000+0  13707-3 0  9998
2 27601  98.3050 294.1157 0071484  95.8956 323.3648 14.33660970199959
CZ-4B R/B               
1 28059U 03049C   25334.97288342  .00000452  00000+0  11531-3 0  9994
2 28059  98.6780 321.0930 0048366 171.6252 188.5762 14.54892048172241
CZ-2C R/B               
1 28222U 04012C   25334.96276391  .00037271  00000+0  56554-3 0  9990
2 28222  97.7452  26.6209 0017272 316.2219  43.7664 15.54346917188899
SL-16 R/B               
1 28353U 04021B   25334.74167376 -.00000061  00000+0 -68877-5 0  9995
2 28353  71.0021  80.1421 0005893 215.1116 144.9619 14.14582454108845
CZ-4B R/B               
1 28415U 04035C   25334.83322033  .00009256  00000+0  34587-3 0  9994
2 28415  97.3631   5.3383 0032401 321.6096  38.2837 15.27080936164812
CZ-2C R/B               
1 28480U 04046B   25334.75804980  .00000205  00000+0  90931-4 0  9996
2 28480  98.1979 250.8813 0140755  87.4536 274.2750 14.26932182 94399
ARIANE 5 R/B            
1 28499U 04049H   25334.92825355  .00001051  00000+0  12313-3 0  9994
2 28499  98.2518 134.7865 0083684 311.7483  47.6596 14.84968604131133
